{
  "type": "FeatureCollection",
  "features": [
    {
      "type": "Feature",
      "properties": {
        "norad_id": 31307,
        "name": "GALAXY 17 (G-17)",
        "group": "intelsat",
        "lat": 2.502725454759832,
        "lon": -178.38689991592662,
        "alt_km": 35779.43194706385,
        "timestamp": "2025-12-26T11:25:44.886538+00:00",
        "meta_object_name": "GALAXY 17 (G-17)",
        "meta_object_id": "2007-016B",
        "meta_epoch": "2025-12-26T03:10:25.167072",
        "meta_mean_motion": 1.00271868,
        "meta_eccentricity": 0.0005613,
        "meta_inclination": 2.5317,
        "meta_ra_of_asc_node": 82.1318,
        "meta_arg_of_pericenter": 173.8914,
        "meta_mean_anomaly": 161.476,
        "meta_ephemeris_type": 0,
        "meta_classification_type": "U",
        "meta_norad_cat_id": 31307,
        "meta_element_set_no": 999,
        "meta_rev_at_epoch": 6806,
        "meta_bstar": 0,
        "meta_mean_motion_dot": -1.85e-06,
        "meta_mean_motion_ddot": 0,
        "tle_line1": "1 31307U 07016B   25360.13223573 -.00000185  00000+0  00000+0 0  9993",
        "tle_line2": "2 31307   2.5317  82.1318 0005613 173.8914 161.4760  1.00271868 68063"
      },
      "geometry": {
        "type": "Point",
        "coordinates": [
          -178.38689991592662,
          2.502725454759832
        ]
      }
    },
    {
      "type": "Feature",
      "properties": {
        "norad_id": 31862,
        "name": "DIRECTV 10",
        "group": "intelsat",
        "lat": 0.00434642195942472,
        "lon": 163.8918559578346,
        "alt_km": 35782.725405944715,
        "timestamp": "2025-12-26T11:25:44.886548+00:00",
        "meta_object_name": "DIRECTV 10",
        "meta_object_id": "2007-032A",
        "meta_epoch": "2025-12-25T09:09:15.831072",
        "meta_mean_motion": 1.00280696,
        "meta_eccentricity": 7.66e-05,
        "meta_inclination": 0.0126,
        "meta_ra_of_asc_node": 126.575,
        "meta_arg_of_pericenter": 111.4706,
        "meta_mean_anomaly": 250.6263,
        "meta_ephemeris_type": 0,
        "meta_classification_type": "U",
        "meta_norad_cat_id": 31862,
        "meta_element_set_no": 999,
        "meta_rev_at_epoch": 4385,
        "meta_bstar": 0,
        "meta_mean_motion_dot": -8.3e-07,
        "meta_mean_motion_ddot": 0,
        "tle_line1": "1 31862U 07032A   25359.38143323 -.00000083  00000+0  00000+0 0  9993",
        "tle_line2": "2 31862   0.0126 126.5750 0000766 111.4706 250.6263  1.00280696 43852"
      },
      "geometry": {
        "type": "Point",
        "coordinates": [
          163.8918559578346,
          0.00434642195942472
        ]
      }
    },
    {
      "type": "Feature",
      "properties": {
        "norad_id": 32253,
        "name": "INTELSAT 11 (IS-11)",
        "group": "intelsat",
        "lat": -0.46281272399733636,
        "lon": 71.99637378223822,
        "alt_km": 36168.11983901504,
        "timestamp": "2025-12-26T11:25:44.886559+00:00",
        "meta_object_name": "INTELSAT 11 (IS-11)",
        "meta_object_id": "2007-044B",
        "meta_epoch": "2025-12-26T01:50:44.833920",
        "meta_mean_motion": 0.99053068,
        "meta_eccentricity": 0.0008639,
        "meta_inclination": 3.1129,
        "meta_ra_of_asc_node": 80.8271,
        "meta_arg_of_pericenter": 171.6859,
        "meta_mean_anomaly": 37.0835,
        "meta_ephemeris_type": 0,
        "meta_classification_type": "U",
        "meta_norad_cat_id": 32253,
        "meta_element_set_no": 999,
        "meta_rev_at_epoch": 6673,
        "meta_bstar": 0,
        "meta_mean_motion_dot": -2.09e-06,
        "meta_mean_motion_ddot": 0,
        "tle_line1": "1 32253U 07044B   25360.07690780 -.00000209  00000+0  00000+0 0  9993",
        "tle_line2": "2 32253   3.1129  80.8271 0008639 171.6859  37.0835  0.99053068 66730"
      },
      "geometry": {
        "type": "Point",
        "coordinates": [
          71.99637378223822,
          -0.46281272399733636
        ]
      }
    },
    {
      "type": "Feature",
      "properties": {
        "norad_id": 32388,
        "name": "HORIZONS-2",
        "group": "intelsat",
        "lat": 2.0263485296706696,
        "lon": -167.19918033433737,
        "alt_km": 35785.60016835246,
        "timestamp": "2025-12-26T11:25:44.886570+00:00",
        "meta_object_name": "HORIZONS-2",
        "meta_object_id": "2007-063B",
        "meta_epoch": "2025-12-26T02:50:28.711104",
        "meta_mean_motion": 1.00269118,
        "meta_eccentricity": 0.0004827,
        "meta_inclination": 2.1544,
        "meta_ra_of_asc_node": 82.8147,
        "meta_arg_of_pericenter": 197.2172,
        "meta_mean_anomaly": 143.6493,
        "meta_ephemeris_type": 0,
        "meta_classification_type": "U",
        "meta_norad_cat_id": 32388,
        "meta_element_set_no": 999,
        "meta_rev_at_epoch": 6607,
        "meta_bstar": 0,
        "meta_mean_motion_dot": -2.32e-06,
        "meta_mean_motion_ddot": 0,
        "tle_line1": "1 32388U 07063B   25360.11838786 -.00000232  00000+0  00000+0 0  9994",
        "tle_line2": "2 32388   2.1544  82.8147 0004827 197.2172 143.6493  1.00269118 66079"
      },
      "geometry": {
        "type": "Point",
        "coordinates": [
          -167.19918033433737,
          2.0263485296706696
        ]
      }
    },
    {
      "type": "Feature",
      "properties": {
        "norad_id": 32729,
        "name": "DIRECTV 11",
        "group": "intelsat",
        "lat": -0.021955380983534625,
        "lon": 167.3802590809335,
        "alt_km": 35786.13087828551,
        "timestamp": "2025-12-26T11:25:44.886582+00:00",
        "meta_object_name": "DIRECTV 11",
        "meta_object_id": "2008-013A",
        "meta_epoch": "2025-12-24T22:53:59.758368",
        "meta_mean_motion": 1.00260442,
        "meta_eccentricity": 0.0001047,
        "meta_inclination": 0.0475,
        "meta_ra_of_asc_node": 199.7105,
        "meta_arg_of_pericenter": 11.4593,
        "meta_mean_anomaly": 126.8496,
        "meta_ephemeris_type": 0,
        "meta_classification_type": "U",
        "meta_norad_cat_id": 32729,
        "meta_element_set_no": 999,
        "meta_rev_at_epoch": 4384,
        "meta_bstar": 0,
        "meta_mean_motion_dot": -1.03e-06,
        "meta_mean_motion_ddot": 0,
        "tle_line1": "1 32729U 08013A   25358.95416387 -.00000103  00000+0  00000+0 0  9994",
        "tle_line2": "2 32729   0.0475 199.7105 0001047  11.4593 126.8496  1.00260442 43842"
      },
      "geometry": {
        "type": "Point",
        "coordinates": [
          167.3802590809335,
          -0.021955380983534625
        ]
      }
    },
    {
      "type": "Feature",
      "properties": {
        "norad_id": 32951,
        "name": "GALAXY 18 (G-18)",
        "group": "intelsat",
        "lat": 0.019676037447475654,
        "lon": 143.6244685408225,
        "alt_km": 35796.32298041307,
        "timestamp": "2025-12-26T11:25:44.886594+00:00",
        "meta_object_name": "GALAXY 18 (G-18)",
        "meta_object_id": "2008-024A",
        "meta_epoch": "2025-12-26T04:39:38.472192",
        "meta_mean_motion": 1.00271919,
        "meta_eccentricity": 0.0003218,
        "meta_inclination": 0.0165,
        "meta_ra_of_asc_node": 351.6105,
        "meta_arg_of_pericenter": 291.1778,
        "meta_mean_anomaly": 119.0627,
        "meta_ephemeris_type": 0,
        "meta_classification_type": "U",
        "meta_norad_cat_id": 32951,
        "meta_element_set_no": 999,
        "meta_rev_at_epoch": 4411,
        "meta_bstar": 0,
        "meta_mean_motion_dot": 4.7e-07,
        "meta_mean_motion_ddot": 0,
        "tle_line1": "1 32951U 08024A   25360.19419528  .00000047  00000+0  00000+0 0  9998",
        "tle_line2": "2 32951   0.0165 351.6105 0003218 291.1778 119.0627  1.00271919 44110"
      },
      "geometry": {
        "type": "Point",
        "coordinates": [
          143.6244685408225,
          0.019676037447475654
        ]
      }
    },
    {
      "type": "Feature",
      "properties": {
        "norad_id": 33153,
        "name": "INTELSAT 25 (IS-25)",
        "group": "intelsat",
        "lat": 1.0273843895223493,
        "lon": -124.85770509312293,
        "alt_km": 35769.41113129974,
        "timestamp": "2025-12-26T11:25:44.886605+00:00",
        "meta_object_name": "INTELSAT 25 (IS-25)",
        "meta_object_id": "2008-034A",
        "meta_epoch": "2025-12-26T00:24:38.640096",
        "meta_mean_motion": 1.00271587,
        "meta_eccentricity": 0.0004961,
        "meta_inclination": 2.2599,
        "meta_ra_of_asc_node": 82.5049,
        "meta_arg_of_pericenter": 190.2408,
        "meta_mean_anomaly": 156.6895,
        "meta_ephemeris_type": 0,
        "meta_classification_type": "U",
        "meta_norad_cat_id": 33153,
        "meta_element_set_no": 999,
        "meta_rev_at_epoch": 6395,
        "meta_bstar": 0,
        "meta_mean_motion_dot": -2.03e-06,
        "meta_mean_motion_ddot": 0,
        "tle_line1": "1 33153U 08034A   25360.01711389 -.00000203  00000+0  00000+0 0  9990",
        "tle_line2": "2 33153   2.2599  82.5049 0004961 190.2408 156.6895  1.00271587 63950"
      },
      "geometry": {
        "type": "Point",
        "coordinates": [
          -124.85770509312293,
          1.0273843895223493
        ]
      }
    }
  ]
}